ONEWEB-0339             
1 49205U 21083V   23059.45425888  .00000404  00000+0  10720-2 0  9996
2 49205  87.9078 199.6432 0001420 118.9297 241.1974 13.13468506 72744
ONEWEB-0339             
1 49205U 21083V   23059.68279173  .00000467  00000+0  12442-2 0  9997
2 49205  87.9079 199.5981 0001430 119.0970 241.0303 13.13468708 74071
ONEWEB-0339             
1 49205U 21083V   23059.91132546  .00000357  00000+0  94242-3 0  9992
2 49205  87.9079 199.5529 0001427 119.6313 240.4959 13.13468309 72808
ONEWEB-0339             
1 49205U 21083V   23060.90163478  .00000268  00000+0  69963-3 0  9994
2 49205  87.9080 199.3571 0001465 120.0906 240.0369 13.13468521 72932
ONEWEB-0339             
1 49205U 21083V   23061.13016690  .00000327  00000+0  86018-3 0  9999
2 49205  87.9080 199.3119 0001473 120.2862 239.8413 13.13469207 74268
ONEWEB-0339             
1 49205U 21083V   23061.81576536  .00000171  00000+0  43293-3 0  9999
2 49205  87.9082 199.1765 0001479 120.5863 239.5413 13.13469201 73052
ONEWEB-0339             
1 49205U 21083V   23062.34900763  .00000159  00000+0  39960-3 0  9993
2 49205  87.9081 199.0710 0001489 120.5109 239.6168 13.13469768 74422
ONEWEB-0339             
1 49205U 21083V   23062.42518498  .00000124  00000+0  30461-3 0  9991
2 49205  87.9081 199.0560 0001497 120.5213 239.6064 13.13470068 73137
ONEWEB-0339             
1 49205U 21083V   23062.88225082 -.00000007  00000+0 -54264-4 0  9995
2 49205  87.9080 198.9656 0001504 121.0984 239.0293 13.13469361 73198
